{
    "links": {
        "self": "http://www.neowsapp.com/rest/v1/neo/3483885?api_key=iIulBulltgU6a56xZRHN4H3l9WmuAYTsLGpBGhQ2"
    },
    "id": "3483885",
    "neo_reference_id": "3483885",
    "name": "(2009 YQ)",
    "designation": "2009 YQ",
    "nasa_jpl_url": "http://ssd.jpl.nasa.gov/sbdb.cgi?sstr=3483885",
    "absolute_magnitude_h": 20.5,
    "estimated_diameter": {
        "kilometers": {
            "estimated_diameter_min": 0.2111324448,
            "estimated_diameter_max": 0.4721064988
        },
        "meters": {
            "estimated_diameter_min": 211.1324447897,
            "estimated_diameter_max": 472.1064988055
        },
        "miles": {
            "estimated_diameter_min": 0.1311915784,
            "estimated_diameter_max": 0.2933532873
        },
        "feet": {
            "estimated_diameter_min": 692.6917701639,
            "estimated_diameter_max": 1548.9058855411
        }
    },
    "is_potentially_hazardous_asteroid": false,
    "close_approach_data": [
        {
            "close_approach_date": "2010-01-13",
            "close_approach_date_full": "2010-Jan-13 04:22",
            "epoch_date_close_approach": 1263356520000,
            "relative_velocity": {
                "kilometers_per_second": "29.7246109007",
                "kilometers_per_hour": "107008.5992425772",
                "miles_per_hour": "66490.9821238114"
            },
            "miss_distance": {
                "astronomical": "0.287471944",
                "lunar": "111.826586216",
                "kilometers": "43005190.50715928",
                "miles": "26722186.256906864"
            },
            "orbiting_body": "Earth"
        }
    ],
    "orbital_data": {
        "orbit_id": "10",
        "orbit_determination_date": "2017-04-06 08:58:43",
        "first_observation_date": "2009-12-18",
        "last_observation_date": "2009-12-27",
        "data_arc_in_days": 9,
        "observations_used": 19,
        "orbit_uncertainty": "9",
        "minimum_orbit_intersection": ".0926051",
        "jupiter_tisserand_invariant": "3.333",
        "epoch_osculation": "2455187.5",
        "eccentricity": ".7183402546574467",
        "semi_major_axis": "2.119644377772043",
        "inclination": "8.53378034377508",
        "ascending_node_longitude": "264.8443055270079",
        "orbital_period": "1127.179111909035",
        "perihelion_distance": ".5970184956600484",
        "perihelion_argument": "309.5612856170084",
        "aphelion_distance": "3.642270259884037",
        "perihelion_time": "2455253.569580476471",
        "mean_anomaly": "338.898607399452",
        "mean_motion": ".3193813620182243",
        "equinox": "J2000",
        "orbit_class": {
            "orbit_class_type": "APO",
            "orbit_class_description": "Near-Earth asteroid orbits which cross the Earth’s orbit similar to that of 1862 Apollo",
            "orbit_class_range": "a (semi-major axis) > 1.0 AU; q (perihelion) < 1.017 AU"
        }
    },
    "is_sentry_object": false
}